STARLINK-33893
1 64253U 25119W   26133.79239492  .00009927  00000+0  36967-3 0  9998
2 64253  43.0002 299.5805 0001622 239.9359 120.1332 15.27591230 54129
STARLINK-34001
1 64272U 25120S   26134.27961622  .00008008  00000+0  28220-3 0  9994
2 64272  53.1571 172.3605 0001373  73.9803 286.1349 15.30202418 53853
STARLINK-34183
1 64254U 25119X   26133.47574149  .00009405  00000+0  35078-3 0  9998
2 64254  42.9958 301.5013 0002027 269.4768  90.5852 15.27587941 54070
STARLINK-34211
1 64255U 25119Y   26133.93729971  .00018565  00000+0  68187-3 0  9999
2 64255  43.0027 298.9524 0003479 288.7054  71.3420 15.27604572 54146
STARLINK-34215
1 64252U 25119V   26133.84236237  .00009974  00000+0  37144-3 0  9997
2 64252  43.0051 299.0981 0001260 273.3031  86.7676 15.27582404 54131
STARLINK-34219
1 64270U 25120Q   26134.27539593  .00013400  00000+0  46367-3 0  9994
2 64270  53.1565 172.3293 0001320  72.8609 287.2536 15.30204594 53959
STARLINK-34240
1 64265U 25120K   26134.28278104  .00007950  00000+0  28021-3 0  9997
2 64265  53.1579 172.3768 0001014  94.6690 265.4427 15.30204397 53955
STARLINK-34264
1 64277U 25120X   26134.26062087  .00008939  00000+0  31356-3 0  9992
2 64277  53.1569 172.2406 0001102  85.5020 274.6107 15.30200488 53896
STARLINK-34272
1 64274U 25120U   26134.27328515  .00014510  00000+0  50097-3 0  9996
2 64274  53.1567 172.3188 0001113  78.6813 281.4313 15.30205642 53852
STARLINK-34276
1 64263U 25120H   26134.30271914  .00009852  00000+0  34428-3 0  9991
2 64263  53.1590 171.7954 0001375  84.8237 275.2921 15.30203354 53965
STARLINK-34281
1 64260U 25120E   26134.28219663  .00020150  00000+0  47098-3 0  9999
2 64260  53.1591 170.2482 0002922  30.1719 329.9455 15.42176853 53933
STARLINK-34293
1 64275U 25120V   26134.27645025  .00013434  00000+0  46474-3 0  9993
2 64275  53.1570 172.3380 0001469  60.2810 299.8337 15.30209641 53895
STARLINK-34297
1 64261U 25120F   26134.28932868  .00186038  00000+0  40699-2 0  9996
2 64261  53.1581 170.2961 0004457 312.4378  47.6251 15.42964331 53874
STARLINK-34298
1 64269U 25120P   26134.28342831  .00025358  00000+0  58992-3 0  9992
2 64269  53.1593 170.2574 0001256  86.9506 273.1644 15.42176182 53887
STARLINK-34306
1 64259U 25120D   26134.26403972  .00025092  00000+0  58383-3 0  9992
2 64259  53.1581 170.1344 0001441 124.3259 235.7883 15.42176939 53930
STARLINK-34308
1 64258U 25120C   26134.29054386  .00031535  00000+0  73049-3 0  9990
2 64258  53.1589 170.3010 0001366  85.7373 274.3789 15.42186454 53939
STARLINK-34315
1 64266U 25120L   26134.26695215  .00007999  00000+0  28188-3 0  9999
2 64266  53.1573 172.2840 0001236 105.7726 254.3411 15.30203083 53894
STARLINK-34319
1 64268U 25120N   26134.28730623  .00023896  00000+0  55645-3 0  9998
2 64268  53.1584 170.2764 0001341  85.3052 274.8107 15.42181281 53979
STARLINK-34321
1 64267U 25120M   26134.27799390  .00028188  00000+0  65434-3 0  9998
2 64267  53.1586 170.2203 0001222  92.0005 268.1141 15.42181828 53981
STARLINK-34325
1 64262U 25120G   26134.27224774  .00008840  00000+0  31030-3 0  9990
2 64262  53.1576 172.3130 0001152  85.6328 274.4805 15.30191861 53954
STARLINK-34329
1 64256U 25120A   26134.27871230  .00036731  00000+0  84861-3 0  9998
2 64256  53.1589 170.2321 0001475  67.6884 292.4278 15.42190251 53987
STARLINK-34333
1 64264U 25120J   26134.26693996  .00022172  00000+0  51716-3 0  9994
2 64264  53.1577 170.1569 0001236 102.7141 257.4004 15.42178108 53938
STARLINK-34334
1 64273U 25120T   26134.28583438  .00007758  00000+0  27371-3 0  9998
2 64273  53.1596 171.6873 0001037  74.7301 285.3815 15.30207556 53968
STARLINK-34342
1 64271U 25120R   26134.32171324  .00009801  00000+0  34252-3 0  9995
2 64271  53.1568 171.9117 0000860  66.0779 294.0312 15.30207253 53913
STARLINK-34350
1 64276U 25120W   26133.83565877  .00029658  00000+0  68803-3 0  9996
2 64276  53.1596 172.4344 0001175  73.8003 286.3132 15.42173605 53913
STARLINK-34352
1 64257U 25120B   26134.31854857  .00007994  00000+0  28174-3 0  9994
2 64257  53.1579 171.8942 0001129  85.0114 275.1016 15.30198779 53910
STARLINK-34353
1 64278U 25120Y   26134.27011805  .00007127  00000+0  25249-3 0  9998
2 64278  53.1569 172.2995 0001182  97.0575 263.0560 15.30204418 53950
STARLINK-34359
1 64280U 25120AA  26134.26589520  .00010010  00000+0  34958-3 0  9996
2 64280  53.1569 172.2712 0001176  80.1312 279.9821 15.30203747 53955
STARLINK-34366
1 64281U 25120AB  26134.31538208  .00005863  00000+0  20994-3 0  9995
2 64281  53.1585 171.8731 0001025  75.3097 284.8018 15.30197748 53911
STARLINK-34377
1 64279U 25120Z   26134.27736523  .00022265  00000+0  51931-3 0  9997
2 64279  53.1581 170.2124 0001090 109.2126 250.8998 15.42176688 53985
