OBJECT_NAME,OBJECT_ID,EPOCH,MEAN_MOTION,ECCENTRICITY,INCLINATION,RA_OF_ASC_NODE,ARG_OF_PERICENTER,MEAN_ANOMALY,EPHEMERIS_TYPE,CLASSIFICATION_TYPE,NORAD_CAT_ID,ELEMENT_SET_NO,REV_AT_EPOCH,BSTAR,MEAN_MOTION_DOT,MEAN_MOTION_DDOT
STARLINK-34215,2025-119V,2026-05-13T20:13:00.108768,15.27582404,.00012604,43.0051,299.0981,273.3031,86.7676,0,U,64252,999,5413,.37143887E-3,.9974E-4,0
STARLINK-33893,2025-119W,2026-05-13T19:01:02.921088,15.27591230,.00016221,43.0002,299.5805,239.9359,120.1332,0,U,64253,999,5412,.36966609E-3,.9927E-4,0
STARLINK-34183,2025-119X,2026-05-13T11:25:04.064736,15.27587941,.00020276,42.9958,301.5013,269.4768,90.5852,0,U,64254,999,5407,.35078085E-3,.9405E-4,0
STARLINK-34211,2025-119Y,2026-05-13T22:29:42.694944,15.27604572,.00034793,43.0027,298.9524,288.7054,71.3420,0,U,64255,999,5414,.68187237E-3,.18565E-3,0
STARLINK-34329,2025-120A,2026-05-14T06:41:20.742720,15.42190251,.00014751,53.1589,170.2321,67.6884,292.4278,0,U,64256,999,5398,.84861243E-3,.36731E-3,0
STARLINK-34352,2025-120B,2026-05-14T07:38:42.596448,15.30198779,.00011299,53.1579,171.8942,85.0114,275.1016,0,U,64257,999,5391,.2817366E-3,.7994E-4,0
STARLINK-34308,2025-120C,2026-05-14T06:58:22.989504,15.42186454,.00013661,53.1589,170.3010,85.7373,274.3789,0,U,64258,999,5393,.7304901E-3,.31535E-3,0
STARLINK-34306,2025-120D,2026-05-14T06:20:13.031808,15.42176939,.00014414,53.1581,170.1344,124.3259,235.7883,0,U,64259,999,5393,.58382908E-3,.25092E-3,0
STARLINK-34281,2025-120E,2026-05-14T06:46:21.788832,15.42176853,.00029228,53.1591,170.2482,30.1719,329.9455,0,U,64260,999,5393,.47098461E-3,.2015E-3,0
STARLINK-34297,2025-120F,2026-05-14T06:56:37.997952,15.42964331,.00044575,53.1581,170.2961,312.4378,47.6251,0,U,64261,999,5387,.40699074E-2,.186038E-2,0
STARLINK-34325,2025-120G,2026-05-14T06:32:02.204736,15.30191861,.00011529,53.1576,172.3130,85.6328,274.4805,0,U,64262,999,5395,.31030018E-3,.884E-4,0
STARLINK-34276,2025-120H,2026-05-14T07:15:54.933696,15.30203354,.00013756,53.1590,171.7954,84.8237,275.2921,0,U,64263,999,5396,.34428022E-3,.9852E-4,0
STARLINK-34333,2025-120J,2026-05-14T06:24:23.612544,15.42178108,.00012368,53.1577,170.1569,102.7141,257.4004,0,U,64264,999,5393,.51716174E-3,.22172E-3,0
STARLINK-34240,2025-120K,2026-05-14T06:47:12.281856,15.30204397,.00010146,53.1579,172.3768,94.6690,265.4427,0,U,64265,999,5395,.28021042E-3,.795E-4,0
STARLINK-34315,2025-120L,2026-05-14T06:24:24.665760,15.30203083,.00012363,53.1573,172.2840,105.7726,254.3411,0,U,64266,999,5389,.28187955E-3,.7999E-4,0
STARLINK-34321,2025-120M,2026-05-14T06:40:18.672960,15.42181828,.00012229,53.1586,170.2203,92.0005,268.1141,0,U,64267,999,5398,.65433573E-3,.28188E-3,0
STARLINK-34319,2025-120N,2026-05-14T06:53:43.258272,15.42181281,.00013419,53.1584,170.2764,85.3052,274.8107,0,U,64268,999,5397,.55645241E-3,.23896E-3,0
STARLINK-34298,2025-120P,2026-05-14T06:48:08.205984,15.42176182,.00012564,53.1593,170.2574,86.9506,273.1644,0,U,64269,999,5388,.58991997E-3,.25358E-3,0
STARLINK-34219,2025-120Q,2026-05-14T06:36:34.208352,15.30204594,.00013201,53.1565,172.3293,72.8609,287.2536,0,U,64270,999,5395,.46366896E-3,.134E-3,0
STARLINK-34342,2025-120R,2026-05-14T07:43:16.023936,15.30207253,.00008603,53.1568,171.9117,66.0779,294.0312,0,U,64271,999,5391,.34252128E-3,.9801E-4,0
STARLINK-34001,2025-120S,2026-05-14T06:42:38.841408,15.30202418,.00013733,53.1571,172.3605,73.9803,286.1349,0,U,64272,999,5385,.28220051E-3,.8008E-4,0
STARLINK-34334,2025-120T,2026-05-14T06:51:36.090432,15.30207556,.00010374,53.1596,171.6873,74.7301,285.3815,0,U,64273,999,5396,.2737056E-3,.7758E-4,0
STARLINK-34272,2025-120U,2026-05-14T06:33:31.836960,15.30205642,.00011134,53.1567,172.3188,78.6813,281.4313,0,U,64274,999,5385,.50096549E-3,.1451E-3,0
STARLINK-34293,2025-120V,2026-05-14T06:38:05.301600,15.30209641,.00014691,53.1570,172.3380,60.2810,299.8337,0,U,64275,999,5389,.46474253E-3,.13434E-3,0
STARLINK-34350,2025-120W,2026-05-13T20:03:20.917728,15.42173605,.00011758,53.1596,172.4344,73.8003,286.3132,0,U,64276,999,5391,.6880334E-3,.29658E-3,0
STARLINK-34264,2025-120X,2026-05-14T06:15:17.643168,15.30200488,.00011029,53.1569,172.2406,85.5020,274.6107,0,U,64277,999,5389,.31356022E-3,.8939E-4,0
STARLINK-34353,2025-120Y,2026-05-14T06:28:58.199520,15.30204418,.00011822,53.1569,172.2995,97.0575,263.0560,0,U,64278,999,5395,.25249398E-3,.7127E-4,0
STARLINK-34377,2025-120Z,2026-05-14T06:39:24.355872,15.42176688,.00010901,53.1581,170.2124,109.2126,250.8998,0,U,64279,999,5398,.51930526E-3,.22265E-3,0
STARLINK-34359,2025-120AA,2026-05-14T06:22:53.345280,15.30203747,.00011762,53.1569,172.2712,80.1312,279.9821,0,U,64280,999,5395,.34958227E-3,.1001E-3,0
STARLINK-34366,2025-120AB,2026-05-14T07:34:09.011712,15.30197748,.00010255,53.1585,171.8731,75.3097,284.8018,0,U,64281,999,5391,.20994166E-3,.5863E-4,0
